[{"OBJECT_NAME":"STARLINK-30258","OBJECT_ID":"2023-119G","EPOCH":"2026-03-09T22:00:01.999584","MEAN_MOTION":15.1321438,"ECCENTRICITY":0.00015657,"INCLINATION":43.0009,"RA_OF_ASC_NODE":80.0826,"ARG_OF_PERICENTER":276.5997,"MEAN_ANOMALY":78.2853,"EPHEMERIS_TYPE":0,"CLASSIFICATION_TYPE":"U","NORAD_CAT_ID":57608,"ELEMENT_SET_NO":999,"REV_AT_EPOCH":578,"BSTAR":0.041208095,"MEAN_MOTION_DOT":0.0079779,"MEAN_MOTION_DDOT":0},{"OBJECT_NAME":"NOAA 16 DEB","OBJECT_ID":"2000-055SB","EPOCH":"2026-02-27T15:08:14.620992","MEAN_MOTION":15.12270094,"ECCENTRICITY":0.00176542,"INCLINATION":98.8281,"RA_OF_ASC_NODE":211.5375,"ARG_OF_PERICENTER":315.8201,"MEAN_ANOMALY":44.1615,"EPHEMERIS_TYPE":0,"CLASSIFICATION_TYPE":"U","NORAD_CAT_ID":42383,"ELEMENT_SET_NO":999,"REV_AT_EPOCH":51816,"BSTAR":0.010800989,"MEAN_MOTION_DOT":0.00192328,"MEAN_MOTION_DDOT":0}]
